KUIPER-00044            
1 64505U 25134F   25212.58335648  .00002386  00000+0  14077-3 0  9999
2 64505  51.8719 148.7985 0011418 256.9751 303.9631 15.15425637  5183
KUIPER-00046            
1 64506U 25134G   25212.58335648 -.00512992  00000+0 -22855-1 0  9992
2 64506  51.8719 147.9049 0008112 265.6386  17.3257 15.23227064  3938
KUIPER-00047            
1 64507U 25134H   25212.30159857  .00043447  00000+0  12879-2 0  9997
2 64507  51.8618 148.8398 0009815 261.7531  98.2341 15.34370264  7056
KUIPER-00048            
1 64508U 25134J   25212.51323696  .00034487  00000+0  96348-3 0  9993
2 64508  51.8757 147.3118 0002779 236.6501 123.4219 15.36377983  7091
KUIPER-00049            
1 64509U 25134K   25212.53594883  .00024127  00000+0  69592-3 0  9995
2 64509  51.8722 147.4451 0006582 243.8692 116.1617 15.35554836  7096
KUIPER-00050            
1 64510U 25134L   25212.54069012  .00031732  00000+0  92421-3 0  9996
2 64510  51.8729 147.4813 0006719 238.1345 121.8987 15.35099005  7096
KUIPER-00051            
1 64511U 25134M   25212.33409983  .00029108  00000+0  83405-3 0  9995
2 64511  51.8732 148.3493 0004866 232.5745 127.4798 15.35666556  7068
KUIPER-00052            
1 64512U 25134N   25212.58335648  .01872061  00000+0  36557-1 0  9998
2 64512  51.8754 146.5843 0004594 272.9488 305.4438 15.43743762  5186
